ONEWEB-0461             
1 51649U 22012AD  24267.36390877  .00000072  00000+0  15201-3 0  9996
2 51649  87.9117 131.7166 0001687  77.7672 282.3649 13.17560370130688
ONEWEB-0463             
1 51650U 22012AE  24267.34575599  .00000062  00000+0  12620-3 0  9993
2 51650  87.9123 131.7715 0001606  76.9512 283.1799 13.17674367130465
ONEWEB-0464             
1 51651U 22012AF  24267.63277078  .00000464  00000+0  12939-2 0  9995
2 51651  87.8978 161.9714 0001925  86.7916 273.3432 13.10371274127913
ONEWEB-0468             
1 51652U 22012AG  24267.41033279  .00000196  00000+0  52564-3 0  9996
2 51652  87.8977 162.0078 0001751  76.8847 283.2475 13.10370966126562
ONEWEB-0473             
1 51653U 22012AH  24267.47175754  .00000674  00000+0  18936-2 0  9993
2 51653  87.8980 161.9990 0001674  77.0947 283.0367 13.10373119126578
ONEWEB-0474             
1 51654U 22012AJ  24267.46345475  .00000687  00000+0  19322-2 0  9996
2 51654  87.8974 161.9885 0001629  80.7351 279.3960 13.10376041126568
ONEWEB-0475             
1 51655U 22012AK  24267.35731311 -.00000004  00000+0 -43820-4 0  9990
2 51655  87.9127 131.7485 0001139 108.0971 252.0285 13.17601341130484
ONEWEB-0490             
1 54113U 22138A   24267.50489790  .00000034  00000+0  53240-4 0  9997
2 54113  87.9102  70.5999 0001774  95.6572 264.4763 13.19725179 93510
